IRIDIUM 112             
1 41925U 17003J   23272.58335941  .00000347  00000+0  11689-3 0  9997
2 41925  86.3985 142.7574 0002254  91.3282 268.8172 14.34218082351141
IRIDIUM 111             
1 41926U 17003K   23272.57067297  .00000432  00000+0  14734-3 0  9992
2 41926  86.3996 142.8121 0002078  76.6537 283.4890 14.34215492351126
IRIDIUM 113             
1 42803U 17039A   23272.34133385  .00000019  00000+0 -36701-6 0  9996
2 42803  86.4031  16.6320 0002123  92.0496 268.0943 14.34217120329020
IRIDIUM 123             
1 42804U 17039B   23272.45258161 -.00000177  00000+0 -70260-4 0  9991
2 42804  86.3972  48.0799 0002279  91.5669 268.5788 14.34216680327807
IRIDIUM 115             
1 42806U 17039D   23272.34346028  .00000772  00000+0  22334-3 0  9998
2 42806  86.4558  16.5297 0002336  86.4881 273.6587 14.43335304331204
IRIDIUM 118             
1 42807U 17039E   23272.48429375  .00000318  00000+0  10632-3 0  9995
2 42807  86.3972  48.0685 0002147  93.2028 266.9414 14.34217951327806
IRIDIUM 117             
1 42808U 17039F   23272.43354489 -.00000561  00000+0 -20756-3 0  9994
2 42808  86.3968  48.0559 0002143  87.3466 272.7975 14.34213646327824
